[{"OBJECT_NAME":"STARLINK-32867","OBJECT_ID":"2025-022B","EPOCH":"2026-03-09T11:42:51.406272","MEAN_MOTION":15.30189584,"ECCENTRICITY":0.00012788,"INCLINATION":53.1612,"RA_OF_ASC_NODE":130.2311,"ARG_OF_PERICENTER":68.3612,"MEAN_ANOMALY":291.7525,"EPHEMERIS_TYPE":0,"CLASSIFICATION_TYPE":"U","NORAD_CAT_ID":62855,"ELEMENT_SET_NO":999,"REV_AT_EPOCH":6187,"BSTAR":0.00071876974,"MEAN_MOTION_DOT":0.00020982,"MEAN_MOTION_DDOT":0},{"OBJECT_NAME":"TEVEL2-7","OBJECT_ID":"2025-052AE","EPOCH":"2026-03-09T15:52:01.887744","MEAN_MOTION":15.28414096,"ECCENTRICITY":0.00081048,"INCLINATION":97.4054,"RA_OF_ASC_NODE":324.3041,"ARG_OF_PERICENTER":124.683,"MEAN_ANOMALY":235.5175,"EPHEMERIS_TYPE":0,"CLASSIFICATION_TYPE":"U","NORAD_CAT_ID":63238,"ELEMENT_SET_NO":999,"REV_AT_EPOCH":5480,"BSTAR":0.00069668191,"MEAN_MOTION_DOT":0.00019244,"MEAN_MOTION_DDOT":0}]
